      2.10          N: GNSS NAV DATA                        RINEX VERSION / TYPE
fic2rin                                 03/13/2022 00:17:25 PGM / RUN BY / DATE
                                                            END OF HEADER
24 22  3 12 22  0  0.0 2.685771323740e-04-3.296918293927e-12 0.000000000000e+00
    3.600000000000e+01 1.993750000000e+01 5.384152843006e-09 1.159730677266e+00
    9.741634130478e-07 1.236436446197e-02 6.509944796562e-06 5.153688861847e+03
    5.976000000000e+05-1.117587089539e-07 7.619670404714e-01 1.229345798492e-07
    9.345419535264e-01 2.403750000000e+02 8.104971606886e-01-8.559285100009e-09
    6.178828801592e-11 1.000000000000e+00 2.200000000000e+03 0.000000000000e+00
    2.400000000000e+00 0.000000000000e+00 2.328306436539e-09 3.600000000000e+01
    5.904000000000e+05 4.000000000000e+00
22 22  3 12 22  0  0.0 2.265563234687e-04 5.798028723802e-12 0.000000000000e+00
    4.600000000000e+01-2.003125000000e+01 4.185531487044e-09 2.914582567583e+00
   -1.031905412674e-06 1.305059448350e-02 9.596347808838e-06 5.153666139603e+03
    5.976000000000e+05 8.195638656616e-08-1.248879398211e-01-5.960464477539e-08
    9.617188942865e-01 1.925937500000e+02-1.867216411664e+00-7.516741673891e-09
    3.557291032593e-10 1.000000000000e+00 2.200000000000e+03 0.000000000000e+00
    2.400000000000e+00 0.000000000000e+00-9.778887033463e-09 4.600000000000e+01
    5.904000000000e+05 4.000000000000e+00
23 22  3 12 22  0  0.0-6.272923201323e-06-3.183231456205e-12 0.000000000000e+00
    9.400000000000e+01-8.793750000000e+01 4.317322690962e-09 1.238084364783e-01
   -4.788860678673e-06 1.996964565478e-03 6.321817636490e-06 5.153705745697e+03
    5.976000000000e+05 5.774199962616e-08-1.282368997256e+00 1.117587089539e-08
    9.674819108421e-01 2.625625000000e+02 2.987731970846e+00-8.040692069956e-09
   -1.935794919343e-10 1.000000000000e+00 2.200000000000e+03 0.000000000000e+00
    2.400000000000e+00 0.000000000000e+00-8.381903171539e-09 9.400000000000e+01
    5.904000000000e+05 4.000000000000e+00
30 22  3 12 22  0  0.0-5.183499306440e-04-2.046363078989e-12 0.000000000000e+00
    8.500000000000e+01 2.162500000000e+01 5.303435195078e-09 2.425192208019e-01
    1.180917024612e-06 5.618283059448e-03 6.107613444328e-06 5.153560806274e+03
    5.976000000000e+05 7.450580596924e-08 8.578864915358e-01 1.024454832077e-07
    9.361523600806e-01 2.486562500000e+02-2.730628682719e+00-8.391420964937e-09
    1.450060400836e-10 1.000000000000e+00 2.200000000000e+03 0.000000000000e+00
    2.400000000000e+00 0.000000000000e+00 3.725290298462e-09 8.500000000000e+01
    5.904000000000e+05 4.000000000000e+00
21 22  3 12 22  0  0.0 1.592985354364e-04 4.547473508865e-13 0.000000000000e+00
    9.700000000000e+01 1.662500000000e+01 4.577690679191e-09-3.054180354962e+00
    1.067295670509e-06 2.457277243957e-02 2.328306436539e-06 5.153577507019e+03
    5.976000000000e+05 3.352761268616e-08-2.381270036907e+00 4.246830940247e-07
    9.597084308398e-01 3.305312500000e+02-9.879218651511e-01-7.981403886080e-09
    8.500354073867e-11 1.000000000000e+00 2.200000000000e+03 0.000000000000e+00
    3.400000000000e+00 0.000000000000e+00-1.024454832077e-08 9.700000000000e+01
    5.904000000000e+05 4.000000000000e+00
19 22  3 12 22  0  0.0 1.301928423345e-04 5.002220859751e-12 0.000000000000e+00
    7.100000000000e+01 8.000000000000e+01 4.123028883560e-09-8.449507817859e-01
    4.233792424202e-06 9.030503104441e-03 7.426366209984e-06 5.153691982269e+03
    5.976000000000e+05-1.005828380585e-07 3.040706120198e+00-8.381903171539e-08
    9.786232433119e-01 2.474062500000e+02 2.018996214862e+00-8.022834183247e-09
    9.893269237232e-11 1.000000000000e+00 2.200000000000e+03 0.000000000000e+00
    2.400000000000e+00 0.000000000000e+00-1.583248376846e-08 7.100000000000e+01
    5.904000000000e+05 4.000000000000e+00
26 22  3 12 22  0  0.0 1.902873627841e-04 3.069544618484e-12 0.000000000000e+00
    9.700000000000e+01 2.150000000000e+01 5.134856744537e-09-1.378279622536e+00
    9.462237358093e-07 6.915368605405e-03 7.016584277153e-06 5.153712064743e+03
    5.976000000000e+05 1.043081283569e-07 1.833772917945e+00-8.009374141693e-08
    9.380126535235e-01 2.280937500000e+02 3.828989042477e-01-8.238200296967e-09
   -2.050085394286e-10 1.000000000000e+00 2.200000000000e+03 0.000000000000e+00
    2.400000000000e+00 0.000000000000e+00 6.984919309616e-09 9.700000000000e+01
    5.904000000000e+05 4.000000000000e+00
17 22  3 12 22  0  0.0 5.863988772035e-04 4.888534022029e-12 0.000000000000e+00
    8.400000000000e+01 8.890625000000e+01 3.982665894021e-09 3.018056730954e+00
    4.723668098450e-06 1.353070442565e-02 7.502734661102e-06 5.153778688431e+03
    5.976000000000e+05 2.868473529816e-07 2.995869579936e+00-2.793967723846e-08
    9.798373102484e-01 2.401562500000e+02-1.493873733037e+00-7.646032773670e-09
   -2.500104139373e-12 1.000000000000e+00 2.200000000000e+03 0.000000000000e+00
    2.400000000000e+00 0.000000000000e+00-1.117587089539e-08 8.400000000000e+01
    5.904000000000e+05 4.000000000000e+00
18 22  3 12 22  0  0.0 2.212724648416e-04-8.640199666843e-12 0.000000000000e+00
    5.500000000000e+01 4.187500000000e+00 4.428755904031e-09 1.094594202974e+00
    2.700835466385e-07 2.122802776285e-03 3.030523657799e-06 5.153617717743e+03
    5.976000000000e+05 3.539025783539e-08-2.282257084643e+00-6.146728992462e-08
    9.709224498572e-01 3.220625000000e+02 3.091334341432e+00-8.234628719625e-09
   -4.893060958486e-11 1.000000000000e+00 2.200000000000e+03 0.000000000000e+00
    2.400000000000e+00 0.000000000000e+00-8.381903171539e-09 8.230000000000e+02
    5.904000000000e+05 4.000000000000e+00
14 22  3 12 22  0  0.0-9.321374818683e-05-3.751665644813e-12 0.000000000000e+00
    2.230000000000e+02 2.325000000000e+01 4.758769650429e-09-3.829311045376e-01
    1.205131411552e-06 1.552846515551e-03 8.285045623779e-06 5.153650194168e+03
    5.976000000000e+05-1.303851604462e-08 1.926627396176e+00-1.117587089539e-08
    9.531492006386e-01 2.149375000000e+02 3.018347851652e+00-8.057121325729e-09
   -3.353711124101e-10 1.000000000000e+00 2.200000000000e+03 0.000000000000e+00
    2.400000000000e+00 0.000000000000e+00-7.450580596924e-09 4.790000000000e+02
    5.904000000000e+05 4.000000000000e+00
11 22  3 12 22  0  0.0-6.485171616077e-05 9.094947017729e-12 0.000000000000e+00
    1.140000000000e+02 4.156250000000e+00 4.608763402066e-09 3.045817674463e+00
    1.545995473862e-07 2.682507038116e-04 2.838671207428e-06 5.153780717850e+03
    5.976000000000e+05 2.607703208923e-08-2.246525869391e+00 2.980232238770e-08
    9.622320318207e-01 3.266562500000e+02 2.792237360785e+00-8.272487439450e-09
   -1.500062483624e-11 1.000000000000e+00 2.200000000000e+03 0.000000000000e+00
    7.680000000000e+02 6.300000000000e+01-8.847564458847e-09 3.700000000000e+02
    5.904000000000e+05 4.000000000000e+00
28 22  3 12 22  0  0.0 3.818650729954e-04-8.299139153678e-12 0.000000000000e+00
    5.800000000000e+01 2.962500000000e+01 4.254820087478e-09-2.759825710001e+00
    1.566484570503e-06 1.671404996887e-02 8.394941687584e-06 5.153693944931e+03
    5.976000000000e+05 1.005828380585e-07 1.980408611099e+00 1.974403858185e-07
    9.688417414731e-01 2.157812500000e+02-1.285065117240e+00-7.538528295677e-09
   -2.892977646988e-10 1.000000000000e+00 2.200000000000e+03 0.000000000000e+00
    3.400000000000e+00 6.300000000000e+01-1.117587089539e-08 5.800000000000e+01
    5.904000000000e+05 4.000000000000e+00
 2 22  3 13  0  0  0.0-6.521735340357e-04-4.547473508865e-13 0.000000000000e+00
    5.600000000000e+01 2.409375000000e+01 4.463757361983e-09 2.050606762928e+00
    9.499490261078e-07 2.062878711149e-02 1.922249794006e-06 5.153626342773e+03
    0.000000000000e+00 2.607703208923e-07-2.499951388781e+00-1.266598701477e-07
    9.654494436446e-01 3.369375000000e+02-1.433447496545e+00-7.996404510916e-09
   -4.893060958486e-11 1.000000000000e+00 2.201000000000e+03 0.000000000000e+00
    2.400000000000e+00 0.000000000000e+00-1.769512891769e-08 5.600000000000e+01
   -7.200000000000e+03 4.000000000000e+00
 1 22  3 13  0  0  0.0 4.103821702302e-04-9.208633855451e-12 0.000000000000e+00
    9.700000000000e+01 4.062500000000e+00 4.143744032143e-09 1.916251178639e+00
    4.284083843231e-08 1.152666762937e-02 3.462657332420e-06 5.153668983459e+03
    0.000000000000e+00-2.980232238770e-07-2.410167757001e+00-1.806765794754e-07
    9.871328051750e-01 3.285625000000e+02 8.836318294411e-01-8.021405552310e-09
    8.071764792831e-11 1.000000000000e+00 2.201000000000e+03 0.000000000000e+00
    2.400000000000e+00 0.000000000000e+00 5.122274160385e-09 9.700000000000e+01
   -7.200000000000e+03 4.000000000000e+00
10 22  3 13  0  0  0.0-3.451583907008e-04-1.136868377216e-11 0.000000000000e+00
    2.900000000000e+01-8.184375000000e+01 4.261248926693e-09-1.282929123719e-01
   -4.364177584648e-06 7.534086704254e-03 5.973502993584e-06 5.153682899475e+03
    0.000000000000e+00 2.607703208923e-08-1.377845817586e+00 7.823109626770e-08
    9.724272293373e-01 2.688437500000e+02-2.501001456749e+00-8.107123408517e-09
   -2.035799084918e-10 1.000000000000e+00 2.201000000000e+03 0.000000000000e+00
    2.400000000000e+00 0.000000000000e+00 2.328306436539e-09 2.900000000000e+01
   -7.200000000000e+03 4.000000000000e+00
 5 22  3 13  0  0  0.0-7.446203380823e-05-1.364242052659e-12 0.000000000000e+00
    6.100000000000e+01-1.014687500000e+02 4.429113061766e-09-1.707783555880e+00
   -5.215406417847e-06 5.880683311261e-03 5.913898348808e-06 5.153685115814e+03
    0.000000000000e+00 1.490116119385e-07-1.415821333499e+00-2.048909664154e-08
    9.595986827254e-01 2.650312500000e+02 1.006313328921e+00-8.011762293487e-09
   -1.696499237431e-10 1.000000000000e+00 2.201000000000e+03 0.000000000000e+00
    2.400000000000e+00 0.000000000000e+00-1.117587089539e-08 6.100000000000e+01
   -7.200000000000e+03 4.000000000000e+00
